STARLINK-37050          
1 68228U 26053X   26087.50001156  .00224834  00000+0  11489-2 0  9990
2 68228  97.2801 322.7020 0000809 123.9011 132.5616 15.80733179  3017
STARLINK-37081          
1 68229U 26053Y   26087.50001156  .00073320  00000+0  38101-3 0  9994
2 68229  97.2790 322.7060 0001446 100.8042 168.5281 15.80775725  3037
STARLINK-37100          
1 68230U 26053Z   26087.50001156  .00032308  00000+0  16884-3 0  9991
2 68230  97.2791 322.7030 0001820  87.6741 173.0946 15.80808498  3034
STARLINK-37104          
1 68231U 26053AA  26087.50001156  .00040850  00000+0  21317-3 0  9990
2 68231  97.2789 322.7046 0000966  65.9344 199.1118 15.80799320  3030
STARLINK-37027          
1 68232U 26054A   26087.50001156 -.00716131  00000+0 -38929-2 0  9992
2 68232  53.1590 218.4055 0001241 137.7973  42.7153 15.81103261  2930
STARLINK-37132          
1 68233U 26054B   26087.50001156  .00015176  00000+0  80372-4 0  9993
2 68233  53.1590 218.3963 0001165  68.8321 115.9966 15.80850940  3011
STARLINK-37101          
1 68234U 26054C   26087.50001156 -.00019352  00000+0 -94735-4 0  9994
2 68234  53.1588 218.3874 0001241  74.8227 114.2764 15.80869984  2933
STARLINK-36963          
1 68235U 26054D   26087.50001156 -.00078118  00000+0 -39551-3 0  9994
2 68235  53.1588 218.3700 0001282  76.9289 120.7160 15.80889487  2930
STARLINK-37127          
1 68236U 26054E   26087.50001156 -.00001483  00000+0 -55096-5 0  9990
2 68236  53.1594 218.4212 0001103  89.4433  82.9778 15.75215907  3017
STARLINK-37095          
1 68237U 26054F   26087.50001156 -.01882823  00000+0 -12857-1 0  9991
2 68237  53.1592 218.3724 0001345  88.7274 107.6339 15.77295153  2937
STARLINK-37097          
1 68238U 26054G   26087.50001156 -.00034157  00000+0 -17019-3 0  9997
2 68238  53.1587 218.3523 0000944  78.8255 127.3639 15.80873934  2937
STARLINK-37096          
1 68239U 26054H   26087.50001156 -.00054914  00000+0 -27636-3 0  9997
2 68239  53.1591 218.3348 0001116  72.0682 142.6650 15.80879631  2933
