CCSDS_OMM_VERS = 2.0
CREATION_DATE  = 
ORIGINATOR     = 

OBJECT_NAME    = STARLINK-37050
OBJECT_ID      = 2026-053X
CENTER_NAME    = EARTH
REF_FRAME      = TEME
TIME_SYSTEM    = UTC
MEAN_ELEMENT_THEORY = SGP/SGP4

EPOCH          = 2026-03-28T12:00:00.998784
MEAN_MOTION    = 15.80733179
ECCENTRICITY   = .0000809
INCLINATION    = 97.2801
RA_OF_ASC_NODE = 322.7020
ARG_OF_PERICENTER = 123.9011
MEAN_ANOMALY   = 132.5616

EPHEMERIS_TYPE = 0
CLASSIFICATION_TYPE = U
NORAD_CAT_ID   = 68228
ELEMENT_SET_NO = 999
REV_AT_EPOCH   = 301
BSTAR          = .11489E-2
MEAN_MOTION_DOT = .224834E-2
MEAN_MOTION_DDOT = 0

CCSDS_OMM_VERS = 2.0
CREATION_DATE  = 
ORIGINATOR     = 

OBJECT_NAME    = STARLINK-37081
OBJECT_ID      = 2026-053Y
CENTER_NAME    = EARTH
REF_FRAME      = TEME
TIME_SYSTEM    = UTC
MEAN_ELEMENT_THEORY = SGP/SGP4

EPOCH          = 2026-03-28T12:00:00.998784
MEAN_MOTION    = 15.80775725
ECCENTRICITY   = .0001446
INCLINATION    = 97.2790
RA_OF_ASC_NODE = 322.7060
ARG_OF_PERICENTER = 100.8042
MEAN_ANOMALY   = 168.5281

EPHEMERIS_TYPE = 0
CLASSIFICATION_TYPE = U
NORAD_CAT_ID   = 68229
ELEMENT_SET_NO = 999
REV_AT_EPOCH   = 303
BSTAR          = .38101E-3
MEAN_MOTION_DOT = .7332E-3
MEAN_MOTION_DDOT = 0

CCSDS_OMM_VERS = 2.0
CREATION_DATE  = 
ORIGINATOR     = 

OBJECT_NAME    = STARLINK-37100
OBJECT_ID      = 2026-053Z
CENTER_NAME    = EARTH
REF_FRAME      = TEME
TIME_SYSTEM    = UTC
MEAN_ELEMENT_THEORY = SGP/SGP4

EPOCH          = 2026-03-28T12:00:00.998784
MEAN_MOTION    = 15.80808498
ECCENTRICITY   = .000182
INCLINATION    = 97.2791
RA_OF_ASC_NODE = 322.7030
ARG_OF_PERICENTER = 87.6741
MEAN_ANOMALY   = 173.0946

EPHEMERIS_TYPE = 0
CLASSIFICATION_TYPE = U
NORAD_CAT_ID   = 68230
ELEMENT_SET_NO = 999
REV_AT_EPOCH   = 303
BSTAR          = .16884E-3
MEAN_MOTION_DOT = .32308E-3
MEAN_MOTION_DDOT = 0

CCSDS_OMM_VERS = 2.0
CREATION_DATE  = 
ORIGINATOR     = 

OBJECT_NAME    = STARLINK-37104
OBJECT_ID      = 2026-053AA
CENTER_NAME    = EARTH
REF_FRAME      = TEME
TIME_SYSTEM    = UTC
MEAN_ELEMENT_THEORY = SGP/SGP4

EPOCH          = 2026-03-28T12:00:00.998784
MEAN_MOTION    = 15.80799320
ECCENTRICITY   = .0000966
INCLINATION    = 97.2789
RA_OF_ASC_NODE = 322.7046
ARG_OF_PERICENTER = 65.9344
MEAN_ANOMALY   = 199.1118

EPHEMERIS_TYPE = 0
CLASSIFICATION_TYPE = U
NORAD_CAT_ID   = 68231
ELEMENT_SET_NO = 999
REV_AT_EPOCH   = 303
BSTAR          = .21317E-3
MEAN_MOTION_DOT = .4085E-3
MEAN_MOTION_DDOT = 0

CCSDS_OMM_VERS = 2.0
CREATION_DATE  = 
ORIGINATOR     = 

OBJECT_NAME    = STARLINK-37027
OBJECT_ID      = 2026-054A
CENTER_NAME    = EARTH
REF_FRAME      = TEME
TIME_SYSTEM    = UTC
MEAN_ELEMENT_THEORY = SGP/SGP4

EPOCH          = 2026-03-28T12:00:00.998784
MEAN_MOTION    = 15.81103261
ECCENTRICITY   = .0001241
INCLINATION    = 53.1590
RA_OF_ASC_NODE = 218.4055
ARG_OF_PERICENTER = 137.7973
MEAN_ANOMALY   = 42.7153

EPHEMERIS_TYPE = 0
CLASSIFICATION_TYPE = U
NORAD_CAT_ID   = 68232
ELEMENT_SET_NO = 999
REV_AT_EPOCH   = 293
BSTAR          = -.38929E-2
MEAN_MOTION_DOT = -.716131E-2
MEAN_MOTION_DDOT = 0

CCSDS_OMM_VERS = 2.0
CREATION_DATE  = 
ORIGINATOR     = 

OBJECT_NAME    = STARLINK-37132
OBJECT_ID      = 2026-054B
CENTER_NAME    = EARTH
REF_FRAME      = TEME
TIME_SYSTEM    = UTC
MEAN_ELEMENT_THEORY = SGP/SGP4

EPOCH          = 2026-03-28T12:00:00.998784
MEAN_MOTION    = 15.80850940
ECCENTRICITY   = .0001165
INCLINATION    = 53.1590
RA_OF_ASC_NODE = 218.3963
ARG_OF_PERICENTER = 68.8321
MEAN_ANOMALY   = 115.9966

EPHEMERIS_TYPE = 0
CLASSIFICATION_TYPE = U
NORAD_CAT_ID   = 68233
ELEMENT_SET_NO = 999
REV_AT_EPOCH   = 301
BSTAR          = .80372E-4
MEAN_MOTION_DOT = .15176E-3
MEAN_MOTION_DDOT = 0

CCSDS_OMM_VERS = 2.0
CREATION_DATE  = 
ORIGINATOR     = 

OBJECT_NAME    = STARLINK-37101
OBJECT_ID      = 2026-054C
CENTER_NAME    = EARTH
REF_FRAME      = TEME
TIME_SYSTEM    = UTC
MEAN_ELEMENT_THEORY = SGP/SGP4

EPOCH          = 2026-03-28T12:00:00.998784
MEAN_MOTION    = 15.80869984
ECCENTRICITY   = .0001241
INCLINATION    = 53.1588
RA_OF_ASC_NODE = 218.3874
ARG_OF_PERICENTER = 74.8227
MEAN_ANOMALY   = 114.2764

EPHEMERIS_TYPE = 0
CLASSIFICATION_TYPE = U
NORAD_CAT_ID   = 68234
ELEMENT_SET_NO = 999
REV_AT_EPOCH   = 293
BSTAR          = -.94735E-4
MEAN_MOTION_DOT = -.19352E-3
MEAN_MOTION_DDOT = 0

CCSDS_OMM_VERS = 2.0
CREATION_DATE  = 
ORIGINATOR     = 

OBJECT_NAME    = STARLINK-36963
OBJECT_ID      = 2026-054D
CENTER_NAME    = EARTH
REF_FRAME      = TEME
TIME_SYSTEM    = UTC
MEAN_ELEMENT_THEORY = SGP/SGP4

EPOCH          = 2026-03-28T12:00:00.998784
MEAN_MOTION    = 15.80889487
ECCENTRICITY   = .0001282
INCLINATION    = 53.1588
RA_OF_ASC_NODE = 218.3700
ARG_OF_PERICENTER = 76.9289
MEAN_ANOMALY   = 120.7160

EPHEMERIS_TYPE = 0
CLASSIFICATION_TYPE = U
NORAD_CAT_ID   = 68235
ELEMENT_SET_NO = 999
REV_AT_EPOCH   = 293
BSTAR          = -.39551E-3
MEAN_MOTION_DOT = -.78118E-3
MEAN_MOTION_DDOT = 0

CCSDS_OMM_VERS = 2.0
CREATION_DATE  = 
ORIGINATOR     = 

OBJECT_NAME    = STARLINK-37127
OBJECT_ID      = 2026-054E
CENTER_NAME    = EARTH
REF_FRAME      = TEME
TIME_SYSTEM    = UTC
MEAN_ELEMENT_THEORY = SGP/SGP4

EPOCH          = 2026-03-28T12:00:00.998784
MEAN_MOTION    = 15.75215907
ECCENTRICITY   = .0001103
INCLINATION    = 53.1594
RA_OF_ASC_NODE = 218.4212
ARG_OF_PERICENTER = 89.4433
MEAN_ANOMALY   = 82.9778

EPHEMERIS_TYPE = 0
CLASSIFICATION_TYPE = U
NORAD_CAT_ID   = 68236
ELEMENT_SET_NO = 999
REV_AT_EPOCH   = 301
BSTAR          = -.55096E-5
MEAN_MOTION_DOT = -.1483E-4
MEAN_MOTION_DDOT = 0

CCSDS_OMM_VERS = 2.0
CREATION_DATE  = 
ORIGINATOR     = 

OBJECT_NAME    = STARLINK-37095
OBJECT_ID      = 2026-054F
CENTER_NAME    = EARTH
REF_FRAME      = TEME
TIME_SYSTEM    = UTC
MEAN_ELEMENT_THEORY = SGP/SGP4

EPOCH          = 2026-03-28T12:00:00.998784
MEAN_MOTION    = 15.77295153
ECCENTRICITY   = .0001345
INCLINATION    = 53.1592
RA_OF_ASC_NODE = 218.3724
ARG_OF_PERICENTER = 88.7274
MEAN_ANOMALY   = 107.6339

EPHEMERIS_TYPE = 0
CLASSIFICATION_TYPE = U
NORAD_CAT_ID   = 68237
ELEMENT_SET_NO = 999
REV_AT_EPOCH   = 293
BSTAR          = -.12857E-1
MEAN_MOTION_DOT = -.1882823E-1
MEAN_MOTION_DDOT = 0

CCSDS_OMM_VERS = 2.0
CREATION_DATE  = 
ORIGINATOR     = 

OBJECT_NAME    = STARLINK-37097
OBJECT_ID      = 2026-054G
CENTER_NAME    = EARTH
REF_FRAME      = TEME
TIME_SYSTEM    = UTC
MEAN_ELEMENT_THEORY = SGP/SGP4

EPOCH          = 2026-03-28T12:00:00.998784
MEAN_MOTION    = 15.80873934
ECCENTRICITY   = .0000944
INCLINATION    = 53.1587
RA_OF_ASC_NODE = 218.3523
ARG_OF_PERICENTER = 78.8255
MEAN_ANOMALY   = 127.3639

EPHEMERIS_TYPE = 0
CLASSIFICATION_TYPE = U
NORAD_CAT_ID   = 68238
ELEMENT_SET_NO = 999
REV_AT_EPOCH   = 293
BSTAR          = -.17019E-3
MEAN_MOTION_DOT = -.34157E-3
MEAN_MOTION_DDOT = 0

CCSDS_OMM_VERS = 2.0
CREATION_DATE  = 
ORIGINATOR     = 

OBJECT_NAME    = STARLINK-37096
OBJECT_ID      = 2026-054H
CENTER_NAME    = EARTH
REF_FRAME      = TEME
TIME_SYSTEM    = UTC
MEAN_ELEMENT_THEORY = SGP/SGP4

EPOCH          = 2026-03-28T12:00:00.998784
MEAN_MOTION    = 15.80879631
ECCENTRICITY   = .0001116
INCLINATION    = 53.1591
RA_OF_ASC_NODE = 218.3348
ARG_OF_PERICENTER = 72.0682
MEAN_ANOMALY   = 142.6650

EPHEMERIS_TYPE = 0
CLASSIFICATION_TYPE = U
NORAD_CAT_ID   = 68239
ELEMENT_SET_NO = 999
REV_AT_EPOCH   = 293
BSTAR          = -.27636E-3
MEAN_MOTION_DOT = -.54914E-3
MEAN_MOTION_DDOT = 0

